{
    "links": {
        "self": "http://www.neowsapp.com/rest/v1/neo/3441112?api_key=iIulBulltgU6a56xZRHN4H3l9WmuAYTsLGpBGhQ2"
    },
    "id": "3441112",
    "neo_reference_id": "3441112",
    "name": "(2008 XK1)",
    "designation": "2008 XK1",
    "nasa_jpl_url": "http://ssd.jpl.nasa.gov/sbdb.cgi?sstr=3441112",
    "absolute_magnitude_h": 23.6,
    "estimated_diameter": {
        "kilometers": {
            "estimated_diameter_min": 0.0506471459,
            "estimated_diameter_max": 0.1132504611
        },
        "meters": {
            "estimated_diameter_min": 50.6471458835,
            "estimated_diameter_max": 113.2504610618
        },
        "miles": {
            "estimated_diameter_min": 0.0314706677,
            "estimated_diameter_max": 0.0703705522
        },
        "feet": {
            "estimated_diameter_min": 166.1651821003,
            "estimated_diameter_max": 371.5566426699
        }
    },
    "is_potentially_hazardous_asteroid": false,
    "close_approach_data": [
        {
            "close_approach_date": "2005-12-20",
            "close_approach_date_full": "2005-Dec-20 10:05",
            "epoch_date_close_approach": 1135073100000,
            "relative_velocity": {
                "kilometers_per_second": "12.0522813853",
                "kilometers_per_hour": "43388.2129872085",
                "miles_per_hour": "26959.7482308574"
            },
            "miss_distance": {
                "astronomical": "0.3228212472",
                "lunar": "125.5774651608",
                "kilometers": "48293370.971863464",
                "miles": "30008109.2274012432"
            },
            "orbiting_body": "Earth"
        },
        {
            "close_approach_date": "2008-12-10",
            "close_approach_date_full": "2008-Dec-10 18:46",
            "epoch_date_close_approach": 1228934760000,
            "relative_velocity": {
                "kilometers_per_second": "9.4904697218",
                "kilometers_per_hour": "34165.6909985877",
                "miles_per_hour": "21229.2317207614"
            },
            "miss_distance": {
                "astronomical": "0.1669467734",
                "lunar": "64.9422948526",
                "kilometers": "24974881.704012658",
                "miles": "15518671.8804963604"
            },
            "orbiting_body": "Earth"
        }
    ],
    "orbital_data": {
        "orbit_id": "9",
        "orbit_determination_date": "2017-04-06 09:01:58",
        "first_observation_date": "2008-12-03",
        "last_observation_date": "2008-12-22",
        "data_arc_in_days": 19,
        "observations_used": 26,
        "orbit_uncertainty": "8",
        "minimum_orbit_intersection": ".166373",
        "jupiter_tisserand_invariant": "4.875",
        "epoch_osculation": "2454811.5",
        "eccentricity": ".1611350064372434",
        "semi_major_axis": "1.324926519298018",
        "inclination": "17.90917150645264",
        "ascending_node_longitude": "251.8142884574935",
        "orbital_period": "557.0396588446055",
        "perihelion_distance": "1.111434476082057",
        "perihelion_argument": "225.731891126469",
        "aphelion_distance": "1.538418562513978",
        "perihelion_time": "2454855.001560804530",
        "mean_anomaly": "331.8860916974683",
        "mean_motion": ".6462735539273827",
        "equinox": "J2000",
        "orbit_class": {
            "orbit_class_type": "AMO",
            "orbit_class_description": "Near-Earth asteroid orbits similar to that of 1221 Amor",
            "orbit_class_range": "1.017 AU < q (perihelion) < 1.3 AU"
        }
    },
    "is_sentry_object": false
}